CCSDS_OMM_VERS = 2.0
CREATION_DATE  = 
ORIGINATOR     = 

OBJECT_NAME    = STARLINK-35906
OBJECT_ID      = 2025-299L
CENTER_NAME    = EARTH
REF_FRAME      = TEME
TIME_SYSTEM    = UTC
MEAN_ELEMENT_THEORY = SGP/SGP4

EPOCH          = 2025-12-30T06:00:02.000160
MEAN_MOTION    = 15.63528541
ECCENTRICITY   = .00013484
INCLINATION    = 42.9992
RA_OF_ASC_NODE = 209.6838
ARG_OF_PERICENTER = 268.0892
MEAN_ANOMALY   = 245.6257

EPHEMERIS_TYPE = 0
CLASSIFICATION_TYPE = U
NORAD_CAT_ID   = 67112
ELEMENT_SET_NO = 999
REV_AT_EPOCH   = 351
BSTAR          = -.23750414E-1
MEAN_MOTION_DOT = -.1990659E-1
MEAN_MOTION_DDOT = 0

CCSDS_OMM_VERS = 2.0
CREATION_DATE  = 
ORIGINATOR     = 

OBJECT_NAME    = STARLINK-35789
OBJECT_ID      = 2025-299M
CENTER_NAME    = EARTH
REF_FRAME      = TEME
TIME_SYSTEM    = UTC
MEAN_ELEMENT_THEORY = SGP/SGP4

EPOCH          = 2025-12-30T06:00:02.000160
MEAN_MOTION    = 15.63539351
ECCENTRICITY   = .00013926
INCLINATION    = 42.9991
RA_OF_ASC_NODE = 209.6790
ARG_OF_PERICENTER = 268.2186
MEAN_ANOMALY   = 247.2808

EPHEMERIS_TYPE = 0
CLASSIFICATION_TYPE = U
NORAD_CAT_ID   = 67113
ELEMENT_SET_NO = 999
REV_AT_EPOCH   = 351
BSTAR          = -.23715644E-1
MEAN_MOTION_DOT = -.1988886E-1
MEAN_MOTION_DDOT = 0

CCSDS_OMM_VERS = 2.0
CREATION_DATE  = 
ORIGINATOR     = 

OBJECT_NAME    = STARLINK-36180
OBJECT_ID      = 2025-299N
CENTER_NAME    = EARTH
REF_FRAME      = TEME
TIME_SYSTEM    = UTC
MEAN_ELEMENT_THEORY = SGP/SGP4

EPOCH          = 2025-12-30T06:00:02.000160
MEAN_MOTION    = 15.63544278
ECCENTRICITY   = .00014009
INCLINATION    = 42.9994
RA_OF_ASC_NODE = 209.6745
ARG_OF_PERICENTER = 267.5638
MEAN_ANOMALY   = 249.8159

EPHEMERIS_TYPE = 0
CLASSIFICATION_TYPE = U
NORAD_CAT_ID   = 67114
ELEMENT_SET_NO = 999
REV_AT_EPOCH   = 362
BSTAR          = -.23744007E-1
MEAN_MOTION_DOT = -.1991323E-1
MEAN_MOTION_DDOT = 0

CCSDS_OMM_VERS = 2.0
CREATION_DATE  = 
ORIGINATOR     = 

OBJECT_NAME    = STARLINK-35892
OBJECT_ID      = 2025-299P
CENTER_NAME    = EARTH
REF_FRAME      = TEME
TIME_SYSTEM    = UTC
MEAN_ELEMENT_THEORY = SGP/SGP4

EPOCH          = 2025-12-30T06:00:02.000160
MEAN_MOTION    = 15.63555142
ECCENTRICITY   = .00013877
INCLINATION    = 42.9990
RA_OF_ASC_NODE = 209.6691
ARG_OF_PERICENTER = 266.1193
MEAN_ANOMALY   = 253.0528

EPHEMERIS_TYPE = 0
CLASSIFICATION_TYPE = U
NORAD_CAT_ID   = 67115
ELEMENT_SET_NO = 999
REV_AT_EPOCH   = 351
BSTAR          = -.23716062E-1
MEAN_MOTION_DOT = -.1990013E-1
MEAN_MOTION_DDOT = 0

CCSDS_OMM_VERS = 2.0
CREATION_DATE  = 
ORIGINATOR     = 

OBJECT_NAME    = STARLINK-35738
OBJECT_ID      = 2025-299Q
CENTER_NAME    = EARTH
REF_FRAME      = TEME
TIME_SYSTEM    = UTC
MEAN_ELEMENT_THEORY = SGP/SGP4

EPOCH          = 2025-12-30T06:00:02.000160
MEAN_MOTION    = 15.63557931
ECCENTRICITY   = .00014153
INCLINATION    = 42.9992
RA_OF_ASC_NODE = 209.6648
ARG_OF_PERICENTER = 267.2812
MEAN_ANOMALY   = 253.7900

EPHEMERIS_TYPE = 0
CLASSIFICATION_TYPE = U
NORAD_CAT_ID   = 67116
ELEMENT_SET_NO = 999
REV_AT_EPOCH   = 351
BSTAR          = -.23722334E-1
MEAN_MOTION_DOT = -.199069E-1
MEAN_MOTION_DDOT = 0

CCSDS_OMM_VERS = 2.0
CREATION_DATE  = 
ORIGINATOR     = 

OBJECT_NAME    = STARLINK-35674
OBJECT_ID      = 2025-299R
CENTER_NAME    = EARTH
REF_FRAME      = TEME
TIME_SYSTEM    = UTC
MEAN_ELEMENT_THEORY = SGP/SGP4

EPOCH          = 2025-12-30T06:00:02.000160
MEAN_MOTION    = 15.63562848
ECCENTRICITY   = .00014113
INCLINATION    = 42.9993
RA_OF_ASC_NODE = 209.6609
ARG_OF_PERICENTER = 268.2237
MEAN_ANOMALY   = 254.6866

EPHEMERIS_TYPE = 0
CLASSIFICATION_TYPE = U
NORAD_CAT_ID   = 67117
ELEMENT_SET_NO = 999
REV_AT_EPOCH   = 341
BSTAR          = -.23718862E-1
MEAN_MOTION_DOT = -.1990774E-1
MEAN_MOTION_DDOT = 0

CCSDS_OMM_VERS = 2.0
CREATION_DATE  = 
ORIGINATOR     = 

OBJECT_NAME    = STARLINK-35701
OBJECT_ID      = 2025-299S
CENTER_NAME    = EARTH
REF_FRAME      = TEME
TIME_SYSTEM    = UTC
MEAN_ELEMENT_THEORY = SGP/SGP4

EPOCH          = 2025-12-30T06:00:02.000160
MEAN_MOTION    = 15.63568295
ECCENTRICITY   = .0001374
INCLINATION    = 42.9991
RA_OF_ASC_NODE = 209.6557
ARG_OF_PERICENTER = 267.4581
MEAN_ANOMALY   = 257.3004

EPHEMERIS_TYPE = 0
CLASSIFICATION_TYPE = U
NORAD_CAT_ID   = 67118
ELEMENT_SET_NO = 999
REV_AT_EPOCH   = 357
BSTAR          = -.2366253E-1
MEAN_MOTION_DOT = -.1986973E-1
MEAN_MOTION_DDOT = 0

CCSDS_OMM_VERS = 2.0
CREATION_DATE  = 
ORIGINATOR     = 

OBJECT_NAME    = STARLINK-36179
OBJECT_ID      = 2025-299T
CENTER_NAME    = EARTH
REF_FRAME      = TEME
TIME_SYSTEM    = UTC
MEAN_ELEMENT_THEORY = SGP/SGP4

EPOCH          = 2025-12-30T06:00:02.000160
MEAN_MOTION    = 15.63606047
ECCENTRICITY   = .00014242
INCLINATION    = 42.9993
RA_OF_ASC_NODE = 209.6466
ARG_OF_PERICENTER = 265.8121
MEAN_ANOMALY   = 262.3806

EPHEMERIS_TYPE = 0
CLASSIFICATION_TYPE = U
NORAD_CAT_ID   = 67119
ELEMENT_SET_NO = 999
REV_AT_EPOCH   = 362
BSTAR          = -.23657724E-1
MEAN_MOTION_DOT = -.1989285E-1
MEAN_MOTION_DDOT = 0

CCSDS_OMM_VERS = 2.0
CREATION_DATE  = 
ORIGINATOR     = 

OBJECT_NAME    = STARLINK-36217
OBJECT_ID      = 2025-299U
CENTER_NAME    = EARTH
REF_FRAME      = TEME
TIME_SYSTEM    = UTC
MEAN_ELEMENT_THEORY = SGP/SGP4

EPOCH          = 2025-12-30T06:00:02.000160
MEAN_MOTION    = 15.63581180
ECCENTRICITY   = .00013997
INCLINATION    = 42.9993
RA_OF_ASC_NODE = 209.6519
ARG_OF_PERICENTER = 266.4884
MEAN_ANOMALY   = 260.0244

EPHEMERIS_TYPE = 0
CLASSIFICATION_TYPE = U
NORAD_CAT_ID   = 67120
ELEMENT_SET_NO = 999
REV_AT_EPOCH   = 362
BSTAR          = -.23613199E-1
MEAN_MOTION_DOT = -.1984248E-1
MEAN_MOTION_DDOT = 0

CCSDS_OMM_VERS = 2.0
CREATION_DATE  = 
ORIGINATOR     = 

OBJECT_NAME    = STARLINK-36124
OBJECT_ID      = 2025-299V
CENTER_NAME    = EARTH
REF_FRAME      = TEME
TIME_SYSTEM    = UTC
MEAN_ELEMENT_THEORY = SGP/SGP4

EPOCH          = 2025-12-30T06:00:02.000160
MEAN_MOTION    = 15.63619345
ECCENTRICITY   = .00013425
INCLINATION    = 42.9993
RA_OF_ASC_NODE = 209.6377
ARG_OF_PERICENTER = 266.3710
MEAN_ANOMALY   = 265.5169

EPHEMERIS_TYPE = 0
CLASSIFICATION_TYPE = U
NORAD_CAT_ID   = 67121
ELEMENT_SET_NO = 999
REV_AT_EPOCH   = 362
BSTAR          = -.23682793E-1
MEAN_MOTION_DOT = -.1992002E-1
MEAN_MOTION_DDOT = 0

CCSDS_OMM_VERS = 2.0
CREATION_DATE  = 
ORIGINATOR     = 

OBJECT_NAME    = STARLINK-36188
OBJECT_ID      = 2025-299W
CENTER_NAME    = EARTH
REF_FRAME      = TEME
TIME_SYSTEM    = UTC
MEAN_ELEMENT_THEORY = SGP/SGP4

EPOCH          = 2025-12-30T06:00:02.000160
MEAN_MOTION    = 15.63632345
ECCENTRICITY   = .00013803
INCLINATION    = 42.9992
RA_OF_ASC_NODE = 209.6340
ARG_OF_PERICENTER = 264.0400
MEAN_ANOMALY   = 269.6017

EPHEMERIS_TYPE = 0
CLASSIFICATION_TYPE = U
NORAD_CAT_ID   = 67122
ELEMENT_SET_NO = 999
REV_AT_EPOCH   = 362
BSTAR          = -.23622546E-1
MEAN_MOTION_DOT = -.1988486E-1
MEAN_MOTION_DDOT = 0

CCSDS_OMM_VERS = 2.0
CREATION_DATE  = 
ORIGINATOR     = 

OBJECT_NAME    = STARLINK-36151
OBJECT_ID      = 2025-299X
CENTER_NAME    = EARTH
REF_FRAME      = TEME
TIME_SYSTEM    = UTC
MEAN_ELEMENT_THEORY = SGP/SGP4

EPOCH          = 2025-12-30T06:00:02.000160
MEAN_MOTION    = 15.63614062
ECCENTRICITY   = .0001385
INCLINATION    = 42.9992
RA_OF_ASC_NODE = 209.6430
ARG_OF_PERICENTER = 265.3351
MEAN_ANOMALY   = 264.6935

EPHEMERIS_TYPE = 0
CLASSIFICATION_TYPE = U
NORAD_CAT_ID   = 67123
ELEMENT_SET_NO = 999
REV_AT_EPOCH   = 362
BSTAR          = -.23675527E-1
MEAN_MOTION_DOT = -.1991129E-1
MEAN_MOTION_DDOT = 0

